NORAD_CAT_ID,OBJECT_NAME,OBJECT_TYPE,EPOCH,MEAN_MOTION,ECCENTRICITY,INCLINATION,RA_OF_ASC_NODE,ARG_OF_PERICENTER,MEAN_ANOMALY,BSTAR,MEAN_MOTION_DOT,MEAN_MOTION_DDOT,TLE_LINE0,TLE_LINE1,TLE_LINE2,SEMIMAJOR_AXIS,PERIOD,APOGEE,PERIGEE,DECAYED
55791.0,STARLINK-5807,PAYLOAD,2023-12-20 16:23:23,14.98324595,0.0002944,70.0016,86.8329,256.6799,103.4032,1.6611e-05,1.05e-06,0.0,0 STARLINK-5807,1 55791U 23028BC  23354.68291107  .00000105  00000-0  16611-4 0  9998,2 55791  70.0016  86.8329 0002944 256.6799 103.4032 14.98324595 45699,6950.21,96.107,574.121,570.028,0.0
55791.0,STARLINK-5807,PAYLOAD,2023-12-21 10:00:51,14.98334313,0.0002864,70.0018,84.9819,253.9023,106.1821,9.596e-06,2.2e-07,0.0,0 STARLINK-5807,1 55791U 23028BC  23355.41726447  .00000022  00000-0  95960-5 0  9993,2 55791  70.0018  84.9819 0002864 253.9023 106.1821 14.98334313 45791,6950.18,96.107,574.035,570.054,0.0
55791.0,STARLINK-5807,PAYLOAD,2023-12-21 14:49:15,14.98333789,0.0002999,70.0014,84.4769,256.7229,103.3596,1.7531e-05,1.16e-06,0.0,0 STARLINK-5807,1 55791U 23028BC  23355.61754421  .00000116  00000-0  17531-4 0  9999,2 55791  70.0014  84.4769 0002999 256.7229 103.3596 14.98333789 45833,6950.181,96.107,574.131,569.962,0.0
55791.0,STARLINK-5807,PAYLOAD,2023-12-22 11:39:00,14.98328824,0.0002607,70.0015,82.2883,252.0132,108.0743,1.2021e-05,5.1e-07,0.0,0 STARLINK-5807,1 55791U 23028BC  23356.48542782  .00000051  00000-0  12021-4 0  9997,2 55791  70.0015  82.2883 0002607 252.0132 108.0743 14.98328824 45958,6950.197,96.107,573.873,570.25,0.0
55791.0,STARLINK-5807,PAYLOAD,2023-12-22 13:15:08,14.98329193,0.000284,70.0016,82.12,254.5434,105.5412,5.8201e-05,6.02e-06,0.0,0 STARLINK-5807,1 55791U 23028BC  23356.55218593  .00000602  00000-0  58201-4 0  9997,2 55791  70.0016  82.1200 0002840 254.5434 105.5412 14.98329193 45979,6950.195,96.107,574.034,570.087,0.0
55791.0,STARLINK-5807,PAYLOAD,2023-12-22 14:51:16,14.98330555,0.000282,70.0016,81.9519,254.5814,105.5033,6.1462e-05,6.4e-06,0.0,0 STARLINK-5807,1 55791U 23028BC  23356.61894497  .00000640  00000-0  61462-4 0  9992,2 55791  70.0016  81.9519 0002820 254.5814 105.5033 14.98330555 45983,6950.191,96.107,574.016,570.096,0.0
55791.0,STARLINK-5807,PAYLOAD,2023-12-23 11:41:01,14.98328304,0.000276,70.0017,79.7633,255.9157,104.1695,-3.8517e-05,-5.52e-06,0.0,0 STARLINK-5807,1 55791U 23028BC  23357.48682845 -.00000552  00000-0 -38517-4 0  9999,2 55791  70.0017  79.7633 0002760 255.9157 104.1695 14.98328304 46107,6950.198,96.107,573.981,570.145,0.0
55791.0,STARLINK-5807,PAYLOAD,2023-12-23 13:17:09,14.98329361,0.0002745,70.0017,79.595,255.2034,104.8821,-2.4547e-05,-3.86e-06,0.0,0 STARLINK-5807,1 55791U 23028BC  23357.55358736 -.00000386  00000-0 -24547-4 0  9999,2 55791  70.0017  79.5950 0002745 255.2034 104.8821 14.98329361 46121,6950.195,96.107,573.968,570.152,0.0
55791.0,STARLINK-5807,PAYLOAD,2023-12-23 14:53:17,14.98329458,0.0002753,70.0015,79.4266,254.1229,105.9627,5.1031e-06,-3.2e-07,0.0,0 STARLINK-5807,1 55791U 23028BC  23357.62034651 -.00000032  00000-0  51031-5 0  9990,2 55791  70.0015  79.4266 0002753 254.1229 105.9627 14.98329458 46135,6950.195,96.107,573.973,570.146,0.0
55791.0,STARLINK-5807,PAYLOAD,2023-12-24 11:43:02,14.98333655,0.0002831,70.0013,77.2383,256.8372,103.2471,4.9766e-06,-3.4e-07,0.0,0 STARLINK-5807,1 55791U 23028BC  23358.48822213 -.00000034  00000-0  49766-5 0  9998,2 55791  70.0013  77.2383 0002831 256.8372 103.2471 14.98333655 46259,6950.182,96.107,574.014,570.079,0.0
55791.0,STARLINK-5807,PAYLOAD,2023-12-24 13:19:10,14.98334448,0.0002814,70.0013,77.0698,255.5892,104.4955,1.6114e-05,9.9e-07,0.0,0 STARLINK-5807,1 55791U 23028BC  23358.55498104  .00000099  00000-0  16114-4 0  9994,2 55791  70.0013  77.0698 0002814 255.5892 104.4955 14.98334448 46273,6950.179,96.107,574.0,570.088,0.0
55791.0,STARLINK-5807,PAYLOAD,2023-12-24 14:55:18,14.9833537,0.0002854,70.0011,76.9011,259.7179,100.3659,2.21e-05,1.71e-06,0.0,0 STARLINK-5807,1 55791U 23028BC  23358.62174021  .00000171  00000-0  22100-4 0  9994,2 55791  70.0011  76.9011 0002854 259.7179 100.3659 14.98335370 46288,6950.176,96.107,574.025,570.058,0.0
55791.0,STARLINK-5807,PAYLOAD,2023-12-25 11:45:03,14.98326813,0.0002859,70.001,74.7131,259.9567,100.1269,1.1957e-05,5e-07,0.0,0 STARLINK-5807,1 55791U 23028BC  23359.48962489  .00000050  00000-0  11957-4 0  9996,2 55791  70.0010  74.7131 0002859 259.9567 100.1269 14.98326813 46405,6950.203,96.107,574.055,570.081,0.0
55791.0,STARLINK-5807,PAYLOAD,2023-12-25 13:21:11,14.98327744,0.0002801,70.0011,74.5447,259.1049,100.9795,1.0709e-05,3.5e-07,0.0,0 STARLINK-5807,1 55791U 23028BC  23359.55638443  .00000035  00000-0  10709-4 0  9991,2 55791  70.0011  74.5447 0002801 259.1049 100.9795 14.98327744 46426,6950.2,96.107,574.012,570.118,0.0
55791.0,STARLINK-5807,PAYLOAD,2023-12-25 14:57:19,14.9832759,0.0002888,70.001,74.3764,261.7861,98.297,1.1228e-05,4.1e-07,0.0,0 STARLINK-5807,1 55791U 23028BC  23359.62314460  .00000041  00000-0  11228-4 0  9993,2 55791  70.0010  74.3764 0002888 261.7861  98.2970 14.98327590 46435,6950.2,96.107,574.073,570.058,0.0
55791.0,STARLINK-5807,PAYLOAD,2023-12-26 11:47:04,14.9832523,0.000274,70.001,72.1882,261.3105,98.7744,-2.7912e-06,-1.26e-06,0.0,0 STARLINK-5807,1 55791U 23028BC  23360.49102751 -.00000126  00000-0 -27912-5 0  9992,2 55791  70.0010  72.1882 0002740 261.3105  98.7744 14.98325230 46552,6950.208,96.107,573.977,570.168,0.0
55791.0,STARLINK-5807,PAYLOAD,2023-12-26 13:23:12,14.98324732,0.0002622,70.0011,72.0199,257.7562,102.3303,3.4255e-05,3.16e-06,0.0,0 STARLINK-5807,1 55791U 23028BC  23360.55778693  .00000316  00000-0  34255-4 0  9999,2 55791  70.0011  72.0199 0002622 257.7562 102.3303 14.98324732 46579,6950.209,96.107,573.897,570.252,0.0
55791.0,STARLINK-5807,PAYLOAD,2023-12-26 14:59:20,14.98320938,0.0002549,70.0011,71.8516,255.9633,104.1243,0.00010194,1.123e-05,0.0,0 STARLINK-5807,1 55791U 23028BC  23360.62454790  .00001123  00000-0  10194-3 0  9998,2 55791  70.0011  71.8516 0002549 255.9633 104.1243 14.98320938 46584,6950.221,96.108,573.858,570.314,0.0
55791.0,STARLINK-5807,PAYLOAD,2023-12-27 11:49:05,14.9833123,0.0002652,70.0008,69.6631,261.814,98.2718,5.2008e-05,5.28e-06,0.0,0 STARLINK-5807,1 55791U 23028BC  23361.49242194  .00000528  00000-0  52008-4 0  9996,2 55791  70.0008  69.6631 0002652 261.8140  98.2718 14.98331230 46708,6950.189,96.107,573.897,570.211,0.0
55791.0,STARLINK-5807,PAYLOAD,2023-12-27 13:25:13,14.98331946,0.0002646,70.0009,69.4949,261.9122,98.1737,5.8777e-05,6.08e-06,0.0,0 STARLINK-5807,1 55791U 23028BC  23361.55918124  .00000608  00000-0  58777-4 0  9994,2 55791  70.0009  69.4949 0002646 261.9122  98.1737 14.98331946 46729,6950.187,96.107,573.891,570.213,0.0
55791.0,STARLINK-5807,PAYLOAD,2023-12-27 15:01:21,14.98332331,0.0002654,70.0008,69.3266,262.6139,97.4718,6.1119e-05,6.36e-06,0.0,0 STARLINK-5807,1 55791U 23028BC  23361.62594088  .00000636  00000-0  61119-4 0  9996,2 55791  70.0008  69.3266 0002654 262.6139  97.4718 14.98332331 46735,6950.186,96.107,573.895,570.206,0.0
55791.0,STARLINK-5807,PAYLOAD,2023-12-28 11:51:06,14.98329281,0.0002631,70.0007,67.1378,264.2383,95.8476,3.1554e-05,2.84e-06,0.0,0 STARLINK-5807,1 55791U 23028BC  23362.49382329  .00000284  00000-0  31554-4 0  9994,2 55791  70.0007  67.1378 0002631 264.2383  95.8476 14.98329281 46854,6950.195,96.107,573.889,570.232,0.0
55791.0,STARLINK-5807,PAYLOAD,2023-12-28 13:27:14,14.98329877,0.0002629,70.0008,66.9696,264.8041,95.2818,3.7229e-05,3.51e-06,0.0,0 STARLINK-5807,1 55791U 23028BC  23362.56058275  .00000351  00000-0  37229-4 0  9992,2 55791  70.0008  66.9696 0002629 264.8041  95.2818 14.98329877 46876,6950.193,96.107,573.885,570.231,0.0
55791.0,STARLINK-5807,PAYLOAD,2023-12-29 11:53:07,14.98328669,0.0002622,70.0007,64.6129,260.7798,99.3064,-5.9001e-05,-7.97e-06,0.0,0 STARLINK-5807,1 55791U 23028BC  23363.49522517 -.00000797  00000-0 -59001-4 0  9998,2 55791  70.0007  64.6129 0002622 260.7798  99.3064 14.98328669 47000,6950.197,96.107,573.884,570.24,0.0
55791.0,STARLINK-5807,PAYLOAD,2023-12-29 13:29:15,14.98328902,0.0002617,70.0007,64.4446,260.7894,99.2969,-5.5259e-05,-7.52e-06,0.0,0 STARLINK-5807,1 55791U 23028BC  23363.56198493 -.00000752  00000-0 -55259-4 0  9990,2 55791  70.0007  64.4446 0002617 260.7894  99.2969 14.98328902 47026,6950.196,96.107,573.88,570.242,0.0
55791.0,STARLINK-5807,PAYLOAD,2023-12-30 11:55:07,14.98362555,0.0002957,70.0002,62.0877,262.1156,97.9667,-0.00052562,-6.364e-05,0.0,0 STARLINK-5807,1 55791U 23028BC  23364.49661345 -.00006364  00000-0 -52562-3 0  9992,2 55791  70.0002  62.0877 0002957 262.1156  97.9667 14.98362555 47153,6950.092,96.105,574.012,569.902,0.0
55791.0,STARLINK-5807,PAYLOAD,2023-12-30 13:31:15,14.98332542,0.0002836,70.0,61.9188,266.6532,93.4303,8.4248e-06,8e-08,0.0,0 STARLINK-5807,1 55791U 23028BC  23364.56337952  .00000008  00000-0  84248-5 0  9999,2 55791  70.0000  61.9188 0002836 266.6532  93.4303 14.98332542 47170,6950.185,96.107,574.021,570.079,0.0
55791.0,STARLINK-5807,PAYLOAD,2023-12-31 11:57:09,14.98324092,0.0002854,70.0,59.5624,264.9614,95.122,-1.3113e-05,-2.49e-06,0.0,0 STARLINK-5807,1 55791U 23028BC  23365.49802570 -.00000249  00000-0 -13113-4 0  9996,2 55791  70.0000  59.5624 0002854 264.9614  95.1220 14.98324092 47303,6950.211,96.107,574.06,570.093,0.0
55791.0,STARLINK-5807,PAYLOAD,2023-12-31 13:33:17,14.9832521,0.0002925,70.0,59.394,266.7643,93.3181,-1.2364e-05,-2.4e-06,0.0,0 STARLINK-5807,1 55791U 23028BC  23365.56478515 -.00000240  00000-0 -12364-4 0  9990,2 55791  70.0000  59.3940 0002925 266.7643  93.3181 14.98325210 47324,6950.208,96.107,574.106,570.04,0.0
55791.0,STARLINK-5807,PAYLOAD,2024-01-01 11:59:09,14.9833251,0.0003055,69.9999,57.0377,269.3207,90.7602,1.3475e-05,6.8e-07,0.0,0 STARLINK-5807,1 55791U 23028BC  24001.49941980  .00000068  00000-0  13475-4 0  9991,2 55791  69.9999  57.0377 0003055 269.3207  90.7602 14.98332510 47451,6950.185,96.107,574.173,569.927,0.0
